SL-8 R/B                
1 15483U 85006B   25340.63632370  .00000527  00000+0  18371-3 0  9990
2 15483  74.0467  72.3637 0018417   6.1289  97.6645 14.37715826140653
SL-12 R/B(2)            
1 15772U 85042D   25340.57732466  .00000263  00000+0  13979-3 0  9997
2 15772  71.1084 284.4384 0037690 270.5391 262.9870 14.21948948101152
SL-14 R/B               
1 15945U 85069B   25340.64249072  .00001143  00000+0  12666-3 0  9992
2 15945  82.5263 112.4347 0019810 137.5037 222.7717 14.86313158159013
SL-16 R/B               
1 16182U 85097B   25340.44403242 -.00000030  00000+0  90873-5 0  9999
2 16182  71.0029 336.8580 0006284  20.7179 141.0610 14.16581699 74024
SL-14 R/B               
1 16496U 86006B   25340.30578389  .00001304  00000+0  13669-3 0  9998
2 16496  82.5266 347.6058 0075666 221.3954 138.1516 14.86659209135336
COSMOS 1743             
1 16719U 86034A   25340.59337462  .00041206  00000+0  68961-3 0  9993
2 16719  82.5342 170.9734 0004731 280.4874  79.5844 15.51686376165781
SL-14 R/B               
1 16792U 86046B   25340.58477390  .00000937  00000+0  10541-3 0  9998
2 16792  82.4812 168.1270 0023268 172.2046 187.9537 14.85474728112587
SL-14 R/B               
1 16882U 86055B   25340.64961762  .00000919  00000+0  10346-3 0  9999
2 16882  82.5211 214.0950 0017511 281.3466 134.8283 14.85522180105553
AJISAI (EGS)            
1 16908U 86061A   25340.65517963 -.00000075  00000+0  15534-3 0  9994
2 16908  50.0114  19.4267 0011280  50.6145  88.0826 12.44514208456412
COSMOS 1812             
1 17295U 87003A   25340.63001204  .00131074  00000+0  90961-3 0  9995
2 17295  82.4875 298.6220 0007150  95.5931 264.6149 15.74006387129694
SL-14 R/B               
1 17567U 87024B   25340.65193372  .00000890  00000+0  98855-4 0  9992
2 17567  82.5280 180.1734 0017570 204.8842 155.1529 14.86014785 74312
COSMOS 1833             
1 17589U 87027A   25340.62974221  .00000078  00000+0  67299-4 0  9992
2 17589  70.9133 161.6219 0022271 340.2958  19.7300 14.13019393997162
SL-16 R/B               
1 17590U 87027B   25340.66154586 -.00000108  00000+0 -29957-4 0  9997
2 17590  71.0025 112.5255 0007511 266.0564  93.9701 14.17152440  2160
SL-14 R/B               
1 17912U 87038B   25340.59911868  .00000877  00000+0  99080-4 0  9998
2 17912  82.5022  24.4846 0020780 110.9246 249.4196 14.85253094 65411
COSMOS 1844             
1 17973U 87041A   25340.40969705 -.00000114  00000+0 -34261-4 0  9998
2 17973  70.8986 230.9220 0030254 167.3032 192.8859 14.14527099990395
SL-14 R/B               
1 18153U 87055B   25340.25528323  .00001009  00000+0  11377-3 0  9998
2 18153  82.5000  77.0991 0019824 325.9234  34.0707 14.85511000 56063
COSMOS 1867             
1 18187U 87060A   25340.38511069  .00000043  00000+0  53837-4 0  9999
2 18187  65.0098 207.9982 0013644 270.4975  89.4546 14.31484695  6584
SL-14 R/B               
1 18749U 88001B   25340.58123978  .00000999  00000+0  11289-3 0  9993
2 18749  82.5127 282.9398 0017910 181.2747 178.8427 14.85413874 28209
COSMOS 1933             
1 18958U 88020A   25340.42086986  .00007985  00000+0  40217-3 0  9991
2 18958  82.5129 343.1223 0005362 144.6677 215.4913 15.17032036 36089
SL-3 R/B                
1 19046U 88032B   25340.60215082  .00008257  00000+0  39835-3 0  9991
2 19046  97.5074 319.3653 0026026 194.3985 165.6511 15.18648682 37979
SL-16 R/B               
1 19120U 88039B   25340.54617738  .00000260  00000+0  14536-3 0  9995
2 19120  71.0152 265.4936 0019891 126.7501 233.5454 14.19595065945162
COSMOS 1953             
1 19210U 88050A   25340.47855625  .00010057  00000+0  37923-3 0  9999
2 19210  82.5099 251.8625 0013807  90.4282 269.8538 15.26830353 23553
SL-8 R/B                
1 19257U 88053B   25340.58238493  .00000522  00000+0  17769-3 0  9995
2 19257  74.0476 284.0676 0019121 130.4874  42.3308 14.38853320963205
COSMOS 1975             
1 19573U 88093A   25340.61867543  .00012495  00000+0  47861-3 0  9996
2 19573  82.5203 210.9555 0012471 131.5533 228.6777 15.26341666  5206
SL-14 R/B               
1 19574U 88093B   25340.36830145  .00001028  00000+0  11579-3 0  9994
2 19574  82.5299 129.6463 0020469 351.1017  27.8275 14.85538696987182
SL-16 R/B               
1 19650U 88102B   25340.03058683 -.00000159  00000+0 -56347-4 0  9992
2 19650  71.0002 348.5606 0013275 163.2235 196.9330 14.16137046913631
INTERCOSMOS 24          
1 20261U 89080A   25340.62668397  .00001596  00000+0  46453-3 0  9992
2 20261  82.6045 164.9275 1188764 148.6971 219.0830 12.59422521655083
SL-14 R/B               
1 20262U 89080C   25340.66385761  .00000783  00000+0  22974-3 0  9997
2 20262  82.5936 232.9203 1230751  37.4709 330.6044 12.50406420648526
DELTA 1 R/B             
1 20323U 89089B   25340.63850734  .00000707  00000+0  18346-3 0  9992
2 20323  97.0757 197.8428 0070440  57.2460 303.5501 14.50564935882248
ARIANE 40 R/B           
1 20443U 90005H   25340.62369389  .00000677  00000+0  22935-3 0  9990
2 20443  98.3251  38.9742 0011140 122.3974 237.8294 14.39791851879413
